# Made by eph2tle, compiled Jul 16 2020 18:47:12
# Run at Fri Jul 24 21:18:01 2020
#
#    The following TLEs (Two-Line Elements) were generated by fitting
# a numerically-integrated ephemeris,  based on the orbit given below,
# to the SDP4/SGP4 models.  Each TLE is good for the interval between
# its epoch and the epoch of the subsequent TLE (usually one day).
# The maximum deviation between the numerically integrated ephemerides
# and the TLE-based ephemeris, in kilometers,  is given for each TLE
# as the "worst residual".
#
#    This fitting is done using the 'eph2tle' code packaged with Find_Orb.
# The code has details on how the TLEs were computed :
#
#    https://github.com/Bill-Gray/find_orb/eph2tle.cpp
#
#    Be warned:  the error given is that between the numerically
# integrated ephems and the TLE model.  There will usually be at
# least some additional difference between the ephems and the actual
# motion of the satellite,  especially if the ephemerides are based
# on a short arc.  If the following orbital elements say something
# like "[based on] 10 observations 2015 Jan. 1-13",  and the TLEs
# are for 2015 May,  the extrapolation may be tenuous at best.  If
# your application requires a specific level of accuracy,  you may
# want to contact me;  I can give you some idea as to the fit of the
# underlying data (and possibly TLEs based on newer data).
#
#   You can usually find the underlying observational data,  and the
# fitted orbit,  residuals,  ephemerides,  and sometimes some comments
# about the object,  among the pages listed at
#
#    https://www.projectpluto.com/pluto/mpecs/pseudo.htm
#
#    WARNING:  for this object,  "normal" TLEs cannot be fitted.  (This
# usually means an object with an hyperbolic or nearly-parabolic orbit.)
# For this and similar cases,   an alternative model is used,  in which
# most of the traditional TLE data is replaced by six signed 8-digit hex
# numbers.  These six numbers are a state vector,  numerically integrated
# using a simplified force model.  This is necessary for objects at L2 or
# L1,  and sometimes for objects in high orbits where the SDP4/SGP4 model
# fails.  I'll be posting source code for this.  But be aware:  it's my
# own extension,  doesn't work with other code,  and is therefore used
# only when necessary.
#
#    Also,  if you use a TLE outside the "correct" time range (between
# its MJD and that of the next TLE),  all bets are off.  I've carefully
# computed and minimized the worst error over the "correct" time frame,
# but the ephemeris may (or may not) diverge wildly outside of it.
#
# Ephem range: 59054.000000 59074.000000 1.000000
# Created Fri Jul 24 21:17:30 2020
# Ephemeris start: 24 Jul 2020  0:00:00
# Ephemeris end:   13 Aug 2020  0:00:00
# Times are all TDT
# Positions/velocities are in equatorial J2000
# Orbital elements:  TianweB
#    Perigee 2020 Jul 23.2170073 +/- 0.00789 TT =  5:12:29.43 (JD 2459053.7170073)
# Epoch 2020 Jul 23.3 TT = JDT 2459053.8                        Find_Orb
# q  6634.4112705 +/- 16.1            (J2000 equator)
# H   26.1  G 0.15                    Peri.  252.4982547 +/- 1.2
#                                     Node   339.3016074 +/- 1.1
# e   1.212858000 +/- 0.00472         Incl.   27.3050091 +/- 0.006
# From 7 observations 2020 July 24 (3.4 hr); mean residual 0".108
#
# 1 NoradU COSPAR   Epoch.epoch     dn/dt/2  d2n/dt2/6 BSTAR    T El# C
# 2 NoradU Inclina RAAscNode Eccent  ArgPeri MeanAno  MeanMotion Rev# C

# Worst residual: 4.67 km
# MJD 59054.000000 (2020 Jul 24  0:00)
TianweB
1 99999U 00000    20205.99919926 +004QSWUZ +000W5Q41 +001AP2OPH  9375
2 99999                          +000LQR9W +0005I0QN +0006MGHF     07

# Worst residual: 9.45 km
# MJD 59055.000000 (2020 Jul 25  0:00)
TianweB
1 99999U 00000    20206.99919926 +009TAGW2 +0026K26M +002UDQ4QH  9372
2 99999                          +000KQSLP +0005A8HS +0006BYIL     06

# Worst residual: 1.57 km
# MJD 59056.000000 (2020 Jul 26  0:00)
TianweB
1 99999U 00000    20207.99919926 +00EQZQP6 +003FTDBA +004CLFW4H  9377
2 99999                          +000KFM4B +000578X6 +000689M8     08

# Worst residual: 0.90 km
# MJD 59057.000000 (2020 Jul 27  0:00)
TianweB
1 99999U 00000    20208.99919926 +00JMTFDS +004OJ3AB +005U5HXFH  9378
2 99999                          +000KA48T +00055HEQ +000666V9     06

# Worst residual: 1.05 km
# MJD 59058.000000 (2020 Jul 28  0:00)
TianweB
1 99999U 00000    20209.99919926 +00OHM5ZV +005WVT34 +007BALTKH  9376
2 99999                          +000K6RIT +000545Z4 +00064PWP     01

# Worst residual: 1.19 km
# MJD 59059.000000 (2020 Jul 29  0:00)
TianweB
1 99999U 00000    20210.99919926 +00TBQO6K +0074XY47 +008S4A6SH  9370
2 99999                          +000K4E2W +0005301O +00063IAF     01

# Worst residual: 1.29 km
# MJD 59060.000000 (2020 Jul 30  0:00)
TianweB
1 99999U 00000    20211.99919926 +00Y5D0C2 +008CQ3X6 +00A8O0CBH  9377
2 99999                          +000K2I6C +00051U2K +00062EAK     01

# Worst residual: 1.35 km
# MJD 59061.000000 (2020 Jul 31  0:00)
TianweB
1 99999U 00000    20212.99919926 +012YK8VI +009K7TIQ +00BOY8JFH  9371
2 99999                          +000K0VA2 +00050KF1 +00061AP7     09

# Worst residual: 1.39 km
# MJD 59062.000000 (2020 Aug  1  0:00)
TianweB
1 99999U 00000    20213.99919926 +017RDZ67 +00ARDUXQ +00D4YSMSH  9372
2 99999                          +000JZD5P +0004Z4DL +000605EQ     01

# Worst residual: 1.44 km
# MJD 59063.000000 (2020 Aug  2  0:00)
TianweB
1 99999U 00000    20214.99919926 +01CJV2YM +00BY6FEN +00EKP34LH  9374
2 99999                          +000JXXWA +0004XFTA +0005YWWY     06

# Worst residual: 1.56 km
# MJD 59064.000000 (2020 Aug  3  0:00)
TianweB
1 99999U 00000    20215.99919926 +01HC05UL +00D4J9OZ +00G0477RH  9376
2 99999                          +000JWKYE +0004VH1C +0005XK2X     09

# Worst residual: 1.75 km
# MJD 59065.000000 (2020 Aug  4  0:00)
TianweB
1 99999U 00000    20216.99919926 +01M3TSS2 +00EADRPR +00HF6ZI7H  9379
2 99999                          +000JVANJ +0004T6RD +0005W21O     05

# Worst residual: 2.00 km
# MJD 59066.000000 (2020 Aug  5  0:00)
TianweB
1 99999U 00000    20217.99919926 +01QVCPXY +00FFN1VQ +00ITW45CH  9372
2 99999                          +000JU3UC +0004QK2A +0005UE65     02

# Worst residual: 2.27 km
# MJD 59067.000000 (2020 Aug  6  0:00)
TianweB
1 99999U 00000    20218.99919926 +01VMLWCZ +00GK825D +00K864LZH  9376
2 99999                          +000JT1ON +0004NKD5 +0005SK05     07

# Worst residual: 2.52 km
# MJD 59068.000000 (2020 Aug  7  0:00)
TianweB
1 99999U 00000    20219.99919926 +020DMLUM +00HO1MPZ +00LLZH6IH  9372
2 99999                          +000JS5HW +0004K7DC +0005QJ98     05

# Worst residual: 2.71 km
# MJD 59069.000000 (2020 Aug  8  0:00)
TianweB
1 99999U 00000    20220.99919926 +0254GFY0 +00IR0KAN +00MZAK7QH  9373
2 99999                          +000JRGNQ +0004GH0L +0005OBRK     06

# Worst residual: 2.84 km
# MJD 59070.000000 (2020 Aug  9  0:00)
TianweB
1 99999U 00000    20221.99919926 +029V5C54 +00JT1NU6 +00OC1R4YH  9373
2 99999                          +000JR0K3 +0004CDF4 +0005LXH2     05

# Worst residual: 2.95 km
# MJD 59071.000000 (2020 Aug 10  0:00)
TianweB
1 99999U 00000    20222.99919926 +02ELRJV3 +00KU1RYP +00PO7F87H  9375
2 99999                          +000JQUKC +00047WU8 +0005JCEH     01

# Worst residual: 3.10 km
# MJD 59072.000000 (2020 Aug 11  0:00)
TianweB
1 99999U 00000    20223.99919926 +02JCDOB8 +00LTXU0P +00QZPY8NH  9376
2 99999                          +000JR01B +000433NB +0005GKMX     03

# Worst residual: 3.33 km
# MJD 59073.000000 (2020 Aug 12  0:00)
TianweB
1 99999U 00000    20224.99919926 +02O32MDR +00MSMV1I +00SAJQX7H  9374
2 99999                          +000JRIBO +0003XYBP +0005DMBM     05
Avg worst resid: 2.47 km                            
Worst residual in entire run: 9.45 km on MJD 59055.0
       1     3     10    30    100   300   1K    3K    10K   km
     1    15     4     0     0     0     0     0     0     0
